start=new Date('2022-08-23T00:00:00.000Z').valueOf();
sats=[{"MEAN_MOTION_DOT":"-0.00000153","APOAPSIS":"548.218","ELEMENT_SET_NO":"999","RA_OF_ASC_NODE":"106.6780","MEAN_MOTION_DDOT":"0.0000000000000","OBJECT_TYPE":"PAYLOAD","GP_ID":"210740750","MEAN_MOTION":"15.06385472","CENTER_NAME":"EARTH","PERIAPSIS":"546.298","FILE":"3543757","INCLINATION":"53.0548","EPOCH":"2022-08-22T08:09:45.201600","COUNTRY_CODE":"US","REV_AT_EPOCH":"8502","ECCENTRICITY":"0.00013860","RCS_SIZE":"LARGE","PERIOD":"95.593","OBJECT_NAME":"STARLINK-2040","DECAY_DATE":null,"BSTAR":"0.00000862540000","MEAN_ANOMALY":"284.5025","TIME_SYSTEM":"UTC","REF_FRAME":"TEME","OBJECT_ID":"2021-012AN","EPHEMERIS_TYPE":"0","ARG_OF_PERICENTER":"75.6117","LAUNCH_DATE":"2021-02-16","SEMIMAJOR_AXIS":"6925.393","TLE_LINE1":"1 47656U 21012AN  22234.34010650 -.00000153  00000-0  86254-5 0  9996","NORAD_CAT_ID":"47656","SITE":"AFETR","TLE_LINE2":"2 47656  53.0548 106.6780 0001386  75.6117 284.5025 15.06385472 85020","CLASSIFICATION_TYPE":"U","MEAN_ELEMENT_THEORY":"SGP4"},{"MEAN_MOTION":"15.06401112","GP_ID":"210775685","OBJECT_TYPE":"PAYLOAD","FILE":"3544179","PERIAPSIS":"546.162","CENTER_NAME":"EARTH","ELEMENT_SET_NO":"999","APOAPSIS":"548.258","MEAN_MOTION_DOT":"0.00005946","MEAN_MOTION_DDOT":"0.0000000000000","RA_OF_ASC_NODE":"126.3544","PERIOD":"95.592","RCS_SIZE":"LARGE","ECCENTRICITY":"0.00015130","OBJECT_NAME":"STARLINK-2041","EPOCH":"2022-08-22T09:53:15.350208","INCLINATION":"53.0531","REV_AT_EPOCH":"8475","COUNTRY_CODE":"US","TLE_LINE1":"1 47657U 21012AP  22234.41198322  .00005946  00000-0  41771-3 0  9995","SEMIMAJOR_AXIS":"6925.345","LAUNCH_DATE":"2021-02-16","ARG_OF_PERICENTER":"81.0955","SITE":"AFETR","NORAD_CAT_ID":"47657","TIME_SYSTEM":"UTC","MEAN_ANOMALY":"279.0205","DECAY_DATE":null,"BSTAR":"0.00041771000000","EPHEMERIS_TYPE":"0","OBJECT_ID":"2021-012AP","REF_FRAME":"TEME","MEAN_ELEMENT_THEORY":"SGP4","CLASSIFICATION_TYPE":"U","TLE_LINE2":"2 47657  53.0531 126.3544 0001513  81.0955 279.0205 15.06401112 84751"},{"COUNTRY_CODE":"US","REV_AT_EPOCH":"8473","INCLINATION":"53.0554","EPOCH":"2022-08-22T03:20:29.343264","OBJECT_NAME":"STARLINK-2042","ECCENTRICITY":"0.00014610","RCS_SIZE":"LARGE","PERIOD":"95.594","MEAN_MOTION_DDOT":"0.0000000000000","RA_OF_ASC_NODE":"127.5819","MEAN_MOTION_DOT":"0.00001227","ELEMENT_SET_NO":"999","APOAPSIS":"548.301","CENTER_NAME":"EARTH","PERIAPSIS":"546.277","FILE":"3543757","OBJECT_TYPE":"PAYLOAD","GP_ID":"210741747","MEAN_MOTION":"15.06375371","CLASSIFICATION_TYPE":"U","TLE_LINE2":"2 47658  53.0554 127.5819 0001461  80.9333 279.1822 15.06375371 84736","MEAN_ELEMENT_THEORY":"SGP4","REF_FRAME":"TEME","OBJECT_ID":"2021-012AQ","EPHEMERIS_TYPE":"0","BSTAR":"0.00010130000000","DECAY_DATE":null,"MEAN_ANOMALY":"279.1822","TIME_SYSTEM":"UTC","SITE":"AFETR","NORAD_CAT_ID":"47658","ARG_OF_PERICENTER":"80.9333","LAUNCH_DATE":"2021-02-16","SEMIMAJOR_AXIS":"6925.424","TLE_LINE1":"1 47658U 21012AQ  22234.13922851  .00001227  00000-0  10130-3 0  9990"},{"SITE":"AFETR","NORAD_CAT_ID":"47659","ARG_OF_PERICENTER":"100.4401","TLE_LINE1":"1 47659U 21012AR  22234.36406386  .00001536  00000-0  12205-3 0  9994","LAUNCH_DATE":"2021-02-16","SEMIMAJOR_AXIS":"6925.397","OBJECT_ID":"2021-012AR","REF_FRAME":"TEME","EPHEMERIS_TYPE":"0","MEAN_ANOMALY":"259.6731","DECAY_DATE":null,"BSTAR":"0.00012205000000","TIME_SYSTEM":"UTC","MEAN_ELEMENT_THEORY":"SGP4","TLE_LINE2":"2 47659  53.0550   6.5736 0001265 100.4401 259.6731 15.06384287 86407","CLASSIFICATION_TYPE":"U","PERIAPSIS":"546.386","CENTER_NAME":"EARTH","FILE":"3543757","GP_ID":"210742491","OBJECT_TYPE":"PAYLOAD","MEAN_MOTION":"15.06384287","RA_OF_ASC_NODE":"6.5736","MEAN_MOTION_DDOT":"0.0000000000000","ELEMENT_SET_NO":"999","APOAPSIS":"548.138","MEAN_MOTION_DOT":"0.00001536","OBJECT_NAME":"STARLINK-2043","RCS_SIZE":"LARGE","ECCENTRICITY":"0.00012650","PERIOD":"95.593","REV_AT_EPOCH":"8640","COUNTRY_CODE":"US","INCLINATION":"53.0550","EPOCH":"2022-08-22T08:44:15.117504"},{"EPHEMERIS_TYPE":"0","REF_FRAME":"TEME","OBJECT_ID":"2021-012AS","TIME_SYSTEM":"UTC","DECAY_DATE":null,"BSTAR":"0.00009288100000","MEAN_ANOMALY":"270.6570","SITE":"AFETR","NORAD_CAT_ID":"47660","LAUNCH_DATE":"2021-02-16","SEMIMAJOR_AXIS":"6925.380","TLE_LINE1":"1 47660U 21012AS  22234.71522920  .00001102  00000-0  92881-4 0  9996","ARG_OF_PERICENTER":"89.4562","CLASSIFICATION_TYPE":"U","TLE_LINE2":"2 47660  53.0565 355.6241 0001247  89.4562 270.6570 15.06389721 86590","MEAN_ELEMENT_THEORY":"SGP4","RA_OF_ASC_NODE":"355.6241","MEAN_MOTION_DDOT":"0.0000000000000","MEAN_MOTION_DOT":"0.00001102","APOAPSIS":"548.109","ELEMENT_SET_NO":"999","FILE":"3544179","PERIAPSIS":"546.381","CENTER_NAME":"EARTH","MEAN_MOTION":"15.06389721","OBJECT_TYPE":"PAYLOAD","GP_ID":"210775935","COUNTRY_CODE":"US","REV_AT_EPOCH":"8659","EPOCH":"2022-08-22T17:09:55.802880","INCLINATION":"53.0565","OBJECT_NAME":"STARLINK-2044","PERIOD":"95.593","ECCENTRICITY":"0.00012470","RCS_SIZE":"LARGE"},{"CLASSIFICATION_TYPE":"U","TLE_LINE2":"2 47661  53.0546 104.1616 0001681  72.2249 287.8923 15.06390992 85095","MEAN_ELEMENT_THEORY":"SGP4","BSTAR":"0.00010081000000","DECAY_DATE":null,"MEAN_ANOMALY":"287.8923","TIME_SYSTEM":"UTC","REF_FRAME":"TEME","OBJECT_ID":"2021-012AT","EPHEMERIS_TYPE":"0","ARG_OF_PERICENTER":"72.2249","LAUNCH_DATE":"2021-02-16","SEMIMAJOR_AXIS":"6925.376","TLE_LINE1":"1 47661U 21012AT  22234.90036836  .00001220  00000-0  10081-3 0  9996","SITE":"AFETR","NORAD_CAT_ID":"47661","INCLINATION":"53.0546","EPOCH":"2022-08-22T21:36:31.826304","COUNTRY_CODE":"US","REV_AT_EPOCH":"8509","ECCENTRICITY":"0.00016810","RCS_SIZE":"LARGE","PERIOD":"95.593","OBJECT_NAME":"STARLINK-2051","MEAN_MOTION_DOT":"0.00001220","ELEMENT_SET_NO":"999","APOAPSIS":"548.405","MEAN_MOTION_DDOT":"0.0000000000000","RA_OF_ASC_NODE":"104.1616","OBJECT_TYPE":"PAYLOAD","GP_ID":"210776185","MEAN_MOTION":"15.06390992","PERIAPSIS":"546.077","CENTER_NAME":"EARTH","FILE":"3544179"},{"MEAN_MOTION":"15.06397013","GP_ID":"210746871","OBJECT_TYPE":"PAYLOAD","FILE":"3543840","CENTER_NAME":"EARTH","PERIAPSIS":"546.253","ELEMENT_SET_NO":"999","APOAPSIS":"548.192","MEAN_MOTION_DOT":"0.00001670","RA_OF_ASC_NODE":"104.5510","MEAN_MOTION_DDOT":"0.0000000000000","PERIOD":"95.592","RCS_SIZE":"LARGE","ECCENTRICITY":"0.00014000","OBJECT_NAME":"STARLINK-2052","EPOCH":"2022-08-22T19:33:05.054976","INCLINATION":"53.0553","REV_AT_EPOCH":"8458","COUNTRY_CODE":"US","TLE_LINE1":"1 47662U 21012AU  22234.81464184  .00001670  00000-0  13102-3 0  9994","LAUNCH_DATE":"2021-02-16","SEMIMAJOR_AXIS":"6925.358","ARG_OF_PERICENTER":"72.4294","SITE":"AFETR","NORAD_CAT_ID":"47662","TIME_SYSTEM":"UTC","BSTAR":"0.00013102000000","DECAY_DATE":null,"MEAN_ANOMALY":"287.6848","EPHEMERIS_TYPE":"0","OBJECT_ID":"2021-012AU","REF_FRAME":"TEME","MEAN_ELEMENT_THEORY":"SGP4","TLE_LINE2":"2 47662  53.0553 104.5510 0001400  72.4294 287.6848 15.06397013 84580","CLASSIFICATION_TYPE":"U"},{"OBJECT_ID":"2021-012AV","REF_FRAME":"TEME","EPHEMERIS_TYPE":"0","DECAY_DATE":null,"BSTAR":"0.00009606700000","MEAN_ANOMALY":"279.3332","TIME_SYSTEM":"UTC","SITE":"AFETR","NORAD_CAT_ID":"47663","ARG_OF_PERICENTER":"80.7825","TLE_LINE1":"1 47663U 21012AV  22234.41386411  .00001149  00000-0  96067-4 0  9990","LAUNCH_DATE":"2021-02-16","SEMIMAJOR_AXIS":"6925.373","TLE_LINE2":"2 47663  53.0551  26.6478 0001483  80.7825 279.3332 15.06392159 86156","CLASSIFICATION_TYPE":"U","MEAN_ELEMENT_THEORY":"SGP4","RA_OF_ASC_NODE":"26.6478","MEAN_MOTION_DDOT":"0.0000000000000","ELEMENT_SET_NO":"999","APOAPSIS":"548.265","MEAN_MOTION_DOT":"0.00001149","CENTER_NAME":"EARTH","PERIAPSIS":"546.211","FILE":"3543757","GP_ID":"210741992","OBJECT_TYPE":"PAYLOAD","MEAN_MOTION":"15.06392159","REV_AT_EPOCH":"8615","COUNTRY_CODE":"US","INCLINATION":"53.0551","EPOCH":"2022-08-22T09:55:57.859104","OBJECT_NAME":"STARLINK-2053","RCS_SIZE":"LARGE","ECCENTRICITY":"0.00014830","PERIOD":"95.593"},{"OBJECT_NAME":"STARLINK-2054","PERIOD":"95.593","RCS_SIZE":"LARGE","ECCENTRICITY":"0.00014590","REV_AT_EPOCH":"8510","COUNTRY_CODE":"US","EPOCH":"2022-08-22T19:34:27.912576","INCLINATION":"53.0552","FILE":"3544179","PERIAPSIS":"546.246","CENTER_NAME":"EARTH","MEAN_MOTION":"15.06386090","GP_ID":"210775436","OBJECT_TYPE":"PAYLOAD","RA_OF_ASC_NODE":"104.5475","MEAN_MOTION_DDOT":"0.0000000000000","ELEMENT_SET_NO":"999","APOAPSIS":"548.267","MEAN_MOTION_DOT":"0.00003128","MEAN_ELEMENT_THEORY":"SGP4","TLE_LINE2":"2 47664  53.0552 104.5475 0001459  80.5524 279.5630 15.06386090 85102","CLASSIFICATION_TYPE":"U","SITE":"AFETR","NORAD_CAT_ID":"47664","TLE_LINE1":"1 47664U 21012AW  22234.81560084  .00003128  00000-0  22888-3 0  9993","SEMIMAJOR_AXIS":"6925.391","LAUNCH_DATE":"2021-02-16","ARG_OF_PERICENTER":"80.5524","EPHEMERIS_TYPE":"0","OBJECT_ID":"2021-012AW","REF_FRAME":"TEME","TIME_SYSTEM":"UTC","MEAN_ANOMALY":"279.5630","DECAY_DATE":null,"BSTAR":"0.00022888000000"},{"LAUNCH_DATE":"2021-02-16","SEMIMAJOR_AXIS":"6925.415","TLE_LINE1":"1 47665U 21012AX  22234.33136440  .00001402  00000-0  11305-3 0  9991","ARG_OF_PERICENTER":"95.7486","SITE":"AFETR","NORAD_CAT_ID":"47665","TIME_SYSTEM":"UTC","MEAN_ANOMALY":"264.3662","DECAY_DATE":null,"BSTAR":"0.00011305000000","EPHEMERIS_TYPE":"0","REF_FRAME":"TEME","OBJECT_ID":"2021-012AX","MEAN_ELEMENT_THEORY":"SGP4","TLE_LINE2":"2 47665  53.0558 101.7650 0001395  95.7486 264.3662 15.06378432 85093","CLASSIFICATION_TYPE":"U","MEAN_MOTION":"15.06378432","OBJECT_TYPE":"PAYLOAD","GP_ID":"210740999","FILE":"3543757","CENTER_NAME":"EARTH","PERIAPSIS":"546.314","MEAN_MOTION_DOT":"0.00001402","ELEMENT_SET_NO":"999","APOAPSIS":"548.246","RA_OF_ASC_NODE":"101.7650","MEAN_MOTION_DDOT":"0.0000000000000","PERIOD":"95.594","ECCENTRICITY":"0.00013950","RCS_SIZE":"LARGE","OBJECT_NAME":"STARLINK-2056","EPOCH":"2022-08-22T07:57:09.884160","INCLINATION":"53.0558","COUNTRY_CODE":"US","REV_AT_EPOCH":"8509"}];
